ION SCV-014             
1 62630U 25009X   26068.71776957  .00001812  00000+0  13229-3 0  9995
2 62630  97.4923 144.8636 0006450 112.6479 247.5430 15.04884649 63025
STARLINK-34714          
1 64939U 25158H   26068.64335227  .00006953  00000+0  48537-3 0  9998
2 64939  97.6029 294.1154 0001395  61.9210 298.2158 15.05667828 35190
